0 CRRES DEB (CANISTER)
1 21590U 90065F   13292.19217930  .00000869  00000-0  10667-2 0  7124
2 21590 020.3008 299.2125 6990068 057.8175 348.6406 02.60694646198397
0 CRRES DEB (CANISTER)
1 21590U 90065F   13293.34594621 -.00000453  00000-0 -23738-3 0  7133
2 21590 020.2900 298.6352 6989760 058.7896 351.4650 02.60698577198423
0 CRRES DEB (CANISTER)
1 21590U 90065F   13294.11296483 -.00000419  00000-0 -24046-3 0  7140
2 21590 020.2877 298.3006 6990120 059.3755 351.3211 02.60698221198442
0 CRRES DEB (CANISTER)
1 21590U 90065F   13296.03056897  .00000856  00000-0  92214-3 0  7152
2 21590 020.2930 297.4214 6990188 060.9594 351.0398 02.60705039198490
